COMMENT,ORIGINATOR,NORAD_CAT_ID,OBJECT_NAME,OBJECT_TYPE,CLASSIFICATION_TYPE,INTLDES,EPOCH,EPOCH_MICROSECONDS,MEAN_MOTION,ECCENTRICITY,INCLINATION,RA_OF_ASC_NODE,ARG_OF_PERICENTER,MEAN_ANOMALY,EPHEMERIS_TYPE,ELEMENT_SET_NO,REV_AT_EPOCH,BSTAR,MEAN_MOTION_DOT,MEAN_MOTION_DDOT,FILE,TLE_LINE0,TLE_LINE1,TLE_LINE2,OBJECT_ID,OBJECT_NUMBER,SEMIMAJOR_AXIS,PERIOD,APOGEE,PERIGEE,DECAYED
"GENERATED VIA SPACETRACK.ORG API","18 SPCS","55102","SPACEBEE-157","PAYLOAD","U","23001CX","2024-01-24 17:56:10","353984","15.33676709","0.0010592","97.4441","89.594","309.0253","51.0046","0","999","5890","0.0013268","0.00043391","0","4170444","0 SPACEBEE-157","1 55102U 23001CX  24024.74734206  .00043391  00000-0  13268-2 0  9996","2 55102  97.4441  89.5940 0010592 309.0253  51.0046 15.33676709 58903","2023-001CX","55102","6842.991","93.892","472.104","457.608","0"
"GENERATED VIA SPACETRACK.ORG API","18 SPCS","55102","SPACEBEE-157","PAYLOAD","U","23001CX","2024-01-24 17:56:10","353984","15.33676709","0.0010592","97.4441","89.594","309.0253","51.0046","0","999","5890","0.0013268","0.00043391","0","4170567","0 SPACEBEE-157","1 55102U 23001CX  24024.74734206  .00043391  00000-0  13268-2 0  9996","2 55102  97.4441  89.5940 0010592 309.0253  51.0046 15.33676709 58903","2023-001CX","55102","6842.991","93.892","472.104","457.608","0"
"GENERATED VIA SPACETRACK.ORG API","18 SPCS","55102","SPACEBEE-157","PAYLOAD","U","23001CX","2024-01-25 03:19:52","918752","15.33710567","0.0010572","97.4438","89.9885","307.0893","52.9382","0","999","5896","0.0013382","0.00043814","0","4171093","0 SPACEBEE-157","1 55102U 23001CX  24025.13880693  .00043814  00000-0  13382-2 0  9999","2 55102  97.4438  89.9885 0010572 307.0893  52.9382 15.33710567 58967","2023-001CX","55102","6842.890","93.890","471.989","457.521","0"
"GENERATED VIA SPACETRACK.ORG API","18 SPCS","55102","SPACEBEE-157","PAYLOAD","U","23001CX","2024-01-25 22:07:16","85280","15.33772272","0.0010484","97.4436","90.7769","303.8228","56.2016","0","999","5908","0.001347","0.00044189","0","4171361","0 SPACEBEE-157","1 55102U 23001CX  24025.92171395  .00044189  00000-0  13470-2 0  9992","2 55102  97.4436  90.7769 0010484 303.8228  56.2016 15.33772272 59080","2023-001CX","55102","6842.707","93.886","471.746","457.398","0"
"GENERATED VIA SPACETRACK.ORG API","18 SPCS","55102","SPACEBEE-157","PAYLOAD","U","23001CX","2024-01-26 02:49:06","443616","15.33791628","0.0010478","97.4435","90.974","303.1226","56.901","0","999","5911","0.0014643","0.00048098","0","4171563","0 SPACEBEE-157","1 55102U 23001CX  24026.11743569  .00048098  00000-0  14643-2 0  9998","2 55102  97.4435  90.9740 0010478 303.1226  56.9010 15.33791628 59115","2023-001CX","55102","6842.649","93.885","471.684","457.344","0"
"GENERATED VIA SPACETRACK.ORG API","18 SPCS","55102","SPACEBEE-157","PAYLOAD","U","23001CX","2024-01-26 02:49:06","443616","15.33791628","0.0010478","97.4435","90.974","303.1226","56.901","0","999","5911","0.0014643","0.00048098","0","4171858","0 SPACEBEE-157","1 55102U 23001CX  24026.11743569  .00048098  00000-0  14643-2 0  9998","2 55102  97.4435  90.9740 0010478 303.1226  56.9010 15.33791628 59115","2023-001CX","55102","6842.649","93.885","471.684","457.344","0"
"GENERATED VIA SPACETRACK.ORG API","18 SPCS","55102","SPACEBEE-157","PAYLOAD","U","23001CX","2024-01-26 16:54:36","396288","15.33834685","0.0010388","97.4433","91.5656","300.6395","59.3822","0","999","5920","0.0012034","0.00039522","0","4171986","0 SPACEBEE-157","1 55102U 23001CX  24026.70458792  .00039522  00000-0  12034-2 0  9998","2 55102  97.4433  91.5656 0010388 300.6395  59.3822 15.33834685 59204","2023-001CX","55102","6842.521","93.882","471.494","457.278","0"
"GENERATED VIA SPACETRACK.ORG API","18 SPCS","55102","SPACEBEE-157","PAYLOAD","U","23001CX","2024-01-27 03:52:11","910144","15.33876194","0.0010352","97.4429","92.0256","298.7732","61.2471","0","999","5927","0.0013546","0.00044585","0","4172745","0 SPACEBEE-157","1 55102U 23001CX  24027.16124896  .00044585  00000-0  13546-2 0  9998","2 55102  97.4429  92.0256 0010352 298.7732  61.2471 15.33876194 59274","2023-001CX","55102","6842.398","93.880","471.346","457.179","0"
"GENERATED VIA SPACETRACK.ORG API","18 SPCS","55102","SPACEBEE-157","PAYLOAD","U","23001CX","2024-01-27 17:57:39","9888","15.33920602","0.0010322","97.4426","92.6171","296.1258","63.8922","0","999","5936","0.0011696","0.00038508","0","4172936","0 SPACEBEE-157","1 55102U 23001CX  24027.74836817  .00038508  00000-0  11696-2 0  9997","2 55102  97.4426  92.6171 0010322 296.1258  63.8922 15.33920602 59368","2023-001CX","55102","6842.265","93.877","471.193","457.068","0"
"GENERATED VIA SPACETRACK.ORG API","18 SPCS","55102","SPACEBEE-157","PAYLOAD","U","23001CX","2024-01-27 17:57:39","9888","15.33920602","0.0010322","97.4426","92.6171","296.1258","63.8922","0","999","5936","0.0011696","0.00038508","0","4172992","0 SPACEBEE-157","1 55102U 23001CX  24027.74836817  .00038508  00000-0  11696-2 0  9997","2 55102  97.4426  92.6171 0010322 296.1258  63.8922 15.33920602 59368","2023-001CX","55102","6842.265","93.877","471.193","457.068","0"
"GENERATED VIA SPACETRACK.ORG API","18 SPCS","55102","SPACEBEE-157","PAYLOAD","U","23001CX","2024-01-28 03:21:16","261920","15.33955623","0.0010346","97.4425","93.0114","294.8054","65.2112","0","999","5942","0.0013651","0.00045047","0","4173554","0 SPACEBEE-157","1 55102U 23001CX  24028.13977155  .00045047  00000-0  13651-2 0  9991","2 55102  97.4425  93.0114 0010346 294.8054  65.2112 15.33955623 59429","2023-001CX","55102","6842.161","93.875","471.105","456.947","0"
"GENERATED VIA SPACETRACK.ORG API","18 SPCS","55102","SPACEBEE-157","PAYLOAD","U","23001CX","2024-01-28 17:26:40","996896","15.33993758","0.0010301","97.4422","93.6029","292.3987","67.6163","0","999","5951","0.0011687","0.00038568","0","4173840","0 SPACEBEE-157","1 55102U 23001CX  24028.72686339  .00038568  00000-0  11687-2 0  9994","2 55102  97.4422  93.6029 0010301 292.3987  67.6163 15.33993758 59519","2023-001CX","55102","6842.048","93.873","470.961","456.865","0"
"GENERATED VIA SPACETRACK.ORG API","18 SPCS","55102","SPACEBEE-157","PAYLOAD","U","23001CX","2024-01-29 02:50:16","610784","15.34026563","0.0010279","97.4422","93.9972","290.75","69.2641","0","999","5957","0.0012548","0.00041473","0","4174029","0 SPACEBEE-157","1 55102U 23001CX  24029.11824781  .00041473  00000-0  12548-2 0  9999","2 55102  97.4422  93.9972 0010279 290.7500  69.2641 15.34026563 59573","2023-001CX","55102","6841.950","93.871","470.848","456.783","0"
"GENERATED VIA SPACETRACK.ORG API","18 SPCS","55102","SPACEBEE-157","PAYLOAD","U","23001CX","2024-01-29 02:50:16","610784","15.34026563","0.0010279","97.4422","93.9972","290.75","69.2641","0","999","5957","0.0012548","0.00041473","0","4174567","0 SPACEBEE-157","1 55102U 23001CX  24029.11824781  .00041473  00000-0  12548-2 0  9999","2 55102  97.4422  93.9972 0010279 290.7500  69.2641 15.34026563 59573","2023-001CX","55102","6841.950","93.871","470.848","456.783","0"
"GENERATED VIA SPACETRACK.ORG API","18 SPCS","55102","SPACEBEE-157","PAYLOAD","U","23001CX","2024-01-30 03:53:08","126304","15.34110451","0.0010179","97.4418","95.0488","286.3792","73.6331","0","999","5973","0.0012092","0.00040061","0","4174773","0 SPACEBEE-157","1 55102U 23001CX  24030.16189961  .00040061  00000-0  12092-2 0  9996","2 55102  97.4418  95.0488 0010179 286.3792  73.6331 15.34110451 59739","2023-001CX","55102","6841.701","93.865","470.530","456.602","0"
"GENERATED VIA SPACETRACK.ORG API","18 SPCS","55102","SPACEBEE-157","PAYLOAD","U","23001CX","2024-01-30 03:53:08","126304","15.34110451","0.0010179","97.4418","95.0488","286.3792","73.6331","0","999","5973","0.0012092","0.00040061","0","4175201","0 SPACEBEE-157","1 55102U 23001CX  24030.16189961  .00040061  00000-0  12092-2 0  9996","2 55102  97.4418  95.0488 0010179 286.3792  73.6331 15.34110451 59739","2023-001CX","55102","6841.701","93.865","470.530","456.602","0"
"GENERATED VIA SPACETRACK.ORG API","18 SPCS","55102","SPACEBEE-157","PAYLOAD","U","23001CX","2024-01-30 16:24:32","109408","15.34150489","0.0010229","97.4417","95.5751","284.6992","75.3117","0","999","5981","0.0011549","0.00038298","0","4175464","0 SPACEBEE-157","1 55102U 23001CX  24030.68370497  .00038298  00000-0  11549-2 0  9994","2 55102  97.4417  95.5751 0010229 284.6992  75.3117 15.34150489 59810","2023-001CX","55102","6841.582","93.863","470.445","456.449","0"
"GENERATED VIA SPACETRACK.ORG API","18 SPCS","55102","SPACEBEE-157","PAYLOAD","U","23001CX","2024-01-31 03:21:59","621760","15.34184313","0.0010324","97.4417","96.0356","283.4665","76.5427","0","999","5988","0.0011244","0.00037321","0","4176118","0 SPACEBEE-157","1 55102U 23001CX  24031.14027340  .00037321  00000-0  11244-2 0  9990","2 55102  97.4417  96.0356 0010324 283.4665  76.5427 15.34184313 59884","2023-001CX","55102","6841.481","93.861","470.410","456.283","0"
"GENERATED VIA SPACETRACK.ORG API","18 SPCS","55102","SPACEBEE-157","PAYLOAD","U","23001CX","2024-02-01 02:50:47","119488","15.3425442","0.0010287","97.4415","97.0221","280.0375","79.9707","0","999","6003","0.0010594","0.00035227","0","4176435","0 SPACEBEE-157","1 55102U 23001CX  24032.11860092  .00035227  00000-0  10594-2 0  9997","2 55102  97.4415  97.0221 0010287 280.0375  79.9707 15.34254420 60037","2023-001CX","55102","6841.273","93.857","470.176","456.100","0"
"GENERATED VIA SPACETRACK.ORG API","18 SPCS","55102","SPACEBEE-157","PAYLOAD","U","23001CX","2024-02-01 02:50:47","119488","15.3425442","0.0010287","97.4415","97.0221","280.0375","79.9707","0","999","6003","0.0010594","0.00035227","0","4176807","0 SPACEBEE-157","1 55102U 23001CX  24032.11860092  .00035227  00000-0  10594-2 0  9997","2 55102  97.4415  97.0221 0010287 280.0375  79.9707 15.34254420 60037","2023-001CX","55102","6841.273","93.857","470.176","456.100","0"
